{"spkid": "50838263", "covariance": {"labels": ["e", "q", "tp", "node", "peri", "i"], "elements": [{"label": "e", "units": null, "value": ".6601371504410011", "title": "eccentricity", "name": "e", "sigma": 1.8174043204796e-08}, {"label": "q", "sigma": 5.26448467989642e-08, "name": "q", "units": "au", "title": "perihelion distance", "value": ".9696941256073478"}, {"title": "time of perihelion passage", "value": "2460232.288248552848", "units": "TDB", "sigma": 8.12441261338349e-06, "name": "tp", "label": "tp"}, {"label": "node", "name": "om", "sigma": 1.29329003405916e-05, "units": "deg", "title": "longitude of the ascending node", "value": "38.58969269341861"}, {"sigma": 1.4552827890189e-05, "name": "w", "units": "deg", "title": "argument of perihelion", "value": "347.0589887819189", "label": "peri"}, {"label": "i", "name": "i", "sigma": 7.42333105401579e-06, "title": "inclination", "value": "20.67525237566448", "units": "deg"}], "data": [["3.302958464097904E-16", "-9.528740081528673E-16", "-2.761995987992491E-14", "1.064120009786723E-14", "-4.50684435974688E-14", "6.789456270615653E-15"], ["-9.528740081528673E-16", "2.771479894486407E-15", "8.836713014476773E-14", "-3.663028880614213E-14", "1.360368957094015E-13", "-2.459378947717143E-14"], ["-2.761995987992491E-14", "8.836713014476773E-14", "6.600608031250481E-11", "-2.220904549966118E-11", "6.809723069600159E-11", "-1.645412776363789E-11"], ["1.064120009786723E-14", "-3.663028880614213E-14", "-2.220904549966118E-11", "1.672599112196752E-10", "-1.642791806330779E-10", "4.973152552553717E-11"], ["-4.50684435974688E-14", "1.360368957094015E-13", "6.809723069600159E-11", "-1.642791806330779E-10", "2.117847996014631E-10", "-5.412986962313165E-11"], ["6.789456270615653E-15", "-2.459378947717143E-14", "-1.645412776363789E-11", "4.973152552553717E-11", "-5.412986962313165E-11", "5.510584393751521E-11"]], "epoch": "2459398.5"}, "elements": [{"sigma": "1.8225E-8", "name": "e", "title": "eccentricity", "value": ".6598775679149641", "units": null, "label": "e"}, {"sigma": "1.3644E-8", "name": "a", "value": "2.851281340369222", "title": "semi-major axis", "units": "au", "label": "a"}, {"sigma": "5.262E-8", "name": "q", "units": "au", "title": "perihelion distance", "value": ".9697847440450608", "label": "q"}, {"label": "i", "value": "20.67933804315584", "title": "inclination; angle with respect to x-y ecliptic plane", "units": "deg", "sigma": "7.4254E-6", "name": "i"}, {"label": "node", "title": "longitude of the ascending node", "value": "38.60318057002632", "units": "deg", "sigma": "1.2934E-5", "name": "om"}, {"label": "peri", "sigma": "1.4553E-5", "name": "w", "units": "deg", "value": "347.1042330546801", "title": "argument of perihelion"}, {"label": "M", "units": "deg", "value": "198.3300456158745", "title": "mean anomaly", "sigma": "2.4101E-6", "name": "ma"}, {"label": "tp", "units": "TDB", "title": "time of perihelion passage", "value": "2461990.242208288968", "sigma": "1.6417E-5", "name": "tp"}, {"label": "period", "units": "d", "value": "1758.565443202383", "title": "sidereal orbital period", "sigma": "1.2623E-5", "name": "per"}, {"name": "n", "sigma": "1.4694E-9", "units": "deg/d", "value": ".2047123133185381", "title": "mean motion", "label": "n"}, {"label": "Q", "title": "aphelion distance", "value": "4.732777936693383", "units": "au", "name": "ad", "sigma": "2.2647E-8"}], "epoch": "2461200.5"}